ONEWEB-0564             
1 55801U 23029F   25216.77429805  .00000013  00000+0  23241-7 0  9995
2 55801  87.9286 337.5214 0002077 111.0029 249.1326 13.20771642119388
ONEWEB-0638             
1 55802U 23029G   25216.43862056  .00000251  00000+0  64135-3 0  9995
2 55802  87.9077 352.7985 0002316 104.0610 256.0777 13.14503685117787
ONEWEB-0639             
1 55803U 23029H   25217.17914379  .00000060  00000+0  11795-3 0  9996
2 55803  87.9246   7.8038 0002408  67.4570 292.6817 13.19723904117911
ONEWEB-0640             
1 55804U 23029J   25216.67647487  .00000238  00000+0  60855-3 0  9992
2 55804  87.9074 352.7382 0002570  95.6537 264.4886 13.14503754117839
ONEWEB-0641             
1 55805U 23029K   25216.71950832  .00000028  00000+0  37587-4 0  9993
2 55805  87.9244   7.8666 0001887  87.8209 272.3140 13.19724597117174
ONEWEB-0642             
1 55806U 23029L   25216.71477993 -.00000022  00000+0 -88166-4 0  9991
2 55806  87.9238   7.9046 0002035  67.3728 292.7619 13.19726192117165
ONEWEB-0643             
1 55807U 23029M   25216.79857619 -.00000189  00000+0 -54370-3 0  9990
2 55807  87.9074 352.6967 0001599  73.0976 287.0329 13.14504200117826
ONEWEB-0644             
1 55808U 23029N   25217.16493655 -.00000005  00000+0 -45815-4 0  9991
2 55808  87.9242   7.8210 0001896  78.5993 281.5353 13.19725377117914
